0 FENGYUN 1C DEB
1 31367U 99025BRX 13283.19677021  .00001050  00000-0  35284-3 0  8580
2 31367 098.7236 001.2350 0117932 265.4215 122.8042 14.35549781344913
0 FENGYUN 1C DEB
1 31367U 99025BRX 13286.19423955  .00001117  00000-0  37415-3 0  8591
2 31367 098.7237 004.2667 0118199 256.5167 133.7341 14.35555586345342
0 FENGYUN 1C DEB
1 31367U 99025BRX 13289.19082593  .00001422  00000-0  47174-3 0  8607
2 31367 098.7230 007.2976 0118324 247.6189 140.1762 14.35566929345775
0 FENGYUN 1C DEB
1 31367U 99025BRX 13291.21106336  .00001570  00000-0  51883-3 0  8612
2 31367 098.7228 009.3414 0118631 241.6759 140.8326 14.35572674346060
0 FENGYUN 1C DEB
1 31367U 99025BRX 13293.67717134  .00001827  00000-0  60099-3 0  8623
2 31367 098.7224 011.8355 0118659 234.3566 285.8908 14.35579830346420
0 FENGYUN 1C DEB
1 31367U 99025BRX 13296.16108510  .00001944  00000-0  63822-3 0  8630
2 31367 098.7226 014.3480 0118713 226.9491 163.0725 14.35589843346771
